ONEWEB-0291             
1 49081U 21075G   24143.44568371 -.00000001  00000+0 -35315-4 0  9992
2 49081  87.9159 156.2977 0002112  81.4351 278.7020 13.17649956134081
ONEWEB-0293             
1 49082U 21075H   24143.47099763  .00000041  00000+0  72826-4 0  9990
2 49082  87.9163 156.3050 0002232  83.6053 276.5332 13.17650233134112
ONEWEB-0294             
1 49083U 21075J   24143.89384371  .00000348  00000+0  93163-3 0  9995
2 49083  87.8923 141.0482 0002532  75.2280 284.9129 13.12442846135503
ONEWEB-0295             
1 49084U 21075K   24143.47256905  .00000079  00000+0  17079-3 0  9994
2 49084  87.9165 156.2819 0001944  74.5470 285.5876 13.17650548134076
ONEWEB-0296             
1 49085U 21075L   24143.03775035 -.00000022  00000+0 -96528-4 0  9994
2 49085  87.8925 141.2195 0002218  67.6779 292.4584 13.12446195135396
ONEWEB-0297             
1 49086U 21075M   24143.90813773  .00000458  00000+0  12379-2 0  9994
2 49086  87.8933 141.0513 0001944  91.6458 268.4894 13.12441013136116
ONEWEB-0298             
1 49087U 21075N   24143.47574268  .00000077  00000+0  16495-3 0  9991
2 49087  87.9166 156.3002 0001893  84.4304 275.7044 13.17649709134103
ONEWEB-0299             
1 49088U 21075P   24143.47731362  .00000078  00000+0  16680-3 0  9999
2 49088  87.9160 156.2704 0001800  82.3786 277.7550 13.17650604134082
